PLEIADES NEO 4          
1 49070U 21073E   26115.61157667 -.00000542  00000+0 -62253-4 0  9991
2 49070  97.8923 191.1293 0001275  93.1075 267.0284 14.81673986253581
LANDSAT 9               
1 49260U 21088A   26117.10664779  .00000340  00000+0  85517-4 0  9993
2 49260  98.1871 188.0911 0001256 105.4780 254.6558 14.57121158243564
CSG-2                   
1 51444U 22008A   26117.24967028 -.00000079  00000+0 -33336-5 0  9995
2 51444  97.8889 301.5853 0001354  85.3530 274.7838 14.82149663229041
GAOFEN-12 03            
1 52912U 22069A   26117.27854750  .00000758  00000+0  10700-3 0  9993
2 52912  97.8340   6.4183 0001245  45.9756 314.1559 14.79950000207082
SWOT                    
1 54754U 22173A   26117.25575769  .00000051  00000+0  36042-4 0  9997
2 54754  77.6077 104.0628 0000774 150.5972 209.5223 14.00170711172026
GAOFEN-12 04            
1 57654U 23123A   26117.30165461  .00001144  00000+0  15757-3 0  9998
2 57654  97.9132  36.0520 0001288  90.2917 269.8442 14.80127273145104
PARS 1                  
1 59065U 24039Q   26117.28418728  .00014101  00000+0  30400-3 0  9996
2 59065  97.4799  96.6521 0007674 306.8124  53.2420 15.44664603120782
RESURS-P 4              
1 59371U 24061A   26117.31561291  .00003881  00000+0  12878-3 0  9991
2 59371  97.2715  66.1238 0002559  59.8953 300.2542 15.31828627115976
LEGION 1                
1 59625U 24081A   26117.22889906  .00005315  00000+0  27387-3 0  9996
2 59625  97.5025 195.6247 0009915 187.8532 172.2547 15.16766420109814
LEGION 2                
1 59626U 24081B   26117.26232268  .00004769  00000+0  24443-3 0  9996
2 59626  97.5024 195.7472 0011413 161.4782 198.6869 15.16997491109820
ALOS-4 (DAICHI-4)       
1 60182U 24123A   26117.23095424  .00001311  00000+0  18243-3 0  9991
2 60182  97.9207 215.1270 0001630  99.3872 260.7524 14.79471072 98341
LEGION 3                
1 60452U 24146A   26116.92558185  .00005050  00000+0  27435-3 0  9996
2 60452  45.0020 305.3981 0008793 232.6219 127.3859 15.15649143 94244
LEGION 4                
1 60453U 24146B   26117.25474092  .00005298  00000+0  29356-3 0  9996
2 60453  45.0029  35.4979 0010417  28.6013 331.5435 15.14856284 93145
SENTINEL-2C             
1 60989U 24157A   26117.19353765  .00000116  00000+0  60814-4 0  9997
2 60989  98.5631 192.7014 0001488 102.1921 257.9428 14.30816718 85691
IONOSFERA-M 1           
1 61735U 24199A   26117.27764561  .00000051  00000+0  42304-4 0  9994
2 61735  98.7244 350.9698 0000427  19.9313 340.1882 14.22744514120460
IONOSFERA-M 2           
1 61736U 24199B   26117.24173099  .00000056  00000+0  44857-4 0  9992
2 61736  98.7243 350.8454 0001941  96.3958 263.7441 14.22747359123582
BIOMASS                 
1 63772U 25090A   26117.23767019  .00001215  00000+0  22269-3 0  9995
2 63772  98.0748 305.2897 0001399  88.3067 271.8298 14.67539706 53217
