[{"OBJECT_NAME":"PLEIADES NEO 4","OBJECT_ID":"2021-073E","EPOCH":"2026-04-25T14:40:40.224288","MEAN_MOTION":14.81673986,"ECCENTRICITY":0.00012757,"INCLINATION":97.8923,"RA_OF_ASC_NODE":191.1293,"ARG_OF_PERICENTER":93.1075,"MEAN_ANOMALY":267.0284,"EPHEMERIS_TYPE":0,"CLASSIFICATION_TYPE":"U","NORAD_CAT_ID":49070,"ELEMENT_SET_NO":999,"REV_AT_EPOCH":25358,"BSTAR":-6.2253235e-5,"MEAN_MOTION_DOT":-5.42e-6,"MEAN_MOTION_DDOT":0},{"OBJECT_NAME":"LANDSAT 9","OBJECT_ID":"2021-088A","EPOCH":"2026-04-27T02:33:34.369056","MEAN_MOTION":14.57121158,"ECCENTRICITY":0.00012563,"INCLINATION":98.1871,"RA_OF_ASC_NODE":188.0911,"ARG_OF_PERICENTER":105.478,"MEAN_ANOMALY":254.6558,"EPHEMERIS_TYPE":0,"CLASSIFICATION_TYPE":"U","NORAD_CAT_ID":49260,"ELEMENT_SET_NO":999,"REV_AT_EPOCH":24356,"BSTAR":8.5516782e-5,"MEAN_MOTION_DOT":3.4e-6,"MEAN_MOTION_DDOT":0},{"OBJECT_NAME":"CSG-2","OBJECT_ID":"2022-008A","EPOCH":"2026-04-27T05:59:31.512192","MEAN_MOTION":14.82149663,"ECCENTRICITY":0.00013547,"INCLINATION":97.8889,"RA_OF_ASC_NODE":301.5853,"ARG_OF_PERICENTER":85.353,"MEAN_ANOMALY":274.7838,"EPHEMERIS_TYPE":0,"CLASSIFICATION_TYPE":"U","NORAD_CAT_ID":51444,"ELEMENT_SET_NO":999,"REV_AT_EPOCH":22904,"BSTAR":-3.333613e-6,"MEAN_MOTION_DOT":-7.9e-7,"MEAN_MOTION_DDOT":0},{"OBJECT_NAME":"GAOFEN-12 03","OBJECT_ID":"2022-069A","EPOCH":"2026-04-27T06:41:06.504000","MEAN_MOTION":14.7995,"ECCENTRICITY":0.00012454,"INCLINATION":97.834,"RA_OF_ASC_NODE":6.4183,"ARG_OF_PERICENTER":45.9756,"MEAN_ANOMALY":314.1559,"EPHEMERIS_TYPE":0,"CLASSIFICATION_TYPE":"U","NORAD_CAT_ID":52912,"ELEMENT_SET_NO":999,"REV_AT_EPOCH":20708,"BSTAR":0.00010699616,"MEAN_MOTION_DOT":7.58e-6,"MEAN_MOTION_DDOT":0},{"OBJECT_NAME":"SWOT","OBJECT_ID":"2022-173A","EPOCH":"2026-04-27T06:08:17.464416","MEAN_MOTION":14.00170711,"ECCENTRICITY":7.743e-5,"INCLINATION":77.6077,"RA_OF_ASC_NODE":104.0628,"ARG_OF_PERICENTER":150.5972,"MEAN_ANOMALY":209.5223,"EPHEMERIS_TYPE":0,"CLASSIFICATION_TYPE":"U","NORAD_CAT_ID":54754,"ELEMENT_SET_NO":999,"REV_AT_EPOCH":17202,"BSTAR":3.6042054e-5,"MEAN_MOTION_DOT":5.1e-7,"MEAN_MOTION_DDOT":0},{"OBJECT_NAME":"GAOFEN-12 04","OBJECT_ID":"2023-123A","EPOCH":"2026-04-27T07:14:22.958304","MEAN_MOTION":14.80127273,"ECCENTRICITY":0.00012881,"INCLINATION":97.9132,"RA_OF_ASC_NODE":36.052,"ARG_OF_PERICENTER":90.2917,"MEAN_ANOMALY":269.8442,"EPHEMERIS_TYPE":0,"CLASSIFICATION_TYPE":"U","NORAD_CAT_ID":57654,"ELEMENT_SET_NO":999,"REV_AT_EPOCH":14510,"BSTAR":0.00015756657,"MEAN_MOTION_DOT":1.144e-5,"MEAN_MOTION_DDOT":0},{"OBJECT_NAME":"PARS 1","OBJECT_ID":"2024-039Q","EPOCH":"2026-04-27T06:49:13.780992","MEAN_MOTION":15.44664603,"ECCENTRICITY":0.00076741,"INCLINATION":97.4799,"RA_OF_ASC_NODE":96.6521,"ARG_OF_PERICENTER":306.8124,"MEAN_ANOMALY":53.242,"EPHEMERIS_TYPE":0,"CLASSIFICATION_TYPE":"U","NORAD_CAT_ID":59065,"ELEMENT_SET_NO":999,"REV_AT_EPOCH":12078,"BSTAR":0.00030400097,"MEAN_MOTION_DOT":0.00014101,"MEAN_MOTION_DDOT":0},{"OBJECT_NAME":"RESURS-P 4","OBJECT_ID":"2024-061A","EPOCH":"2026-04-27T07:34:28.955424","MEAN_MOTION":15.31828627,"ECCENTRICITY":0.00025591,"INCLINATION":97.2715,"RA_OF_ASC_NODE":66.1238,"ARG_OF_PERICENTER":59.8953,"MEAN_ANOMALY":300.2542,"EPHEMERIS_TYPE":0,"CLASSIFICATION_TYPE":"U","NORAD_CAT_ID":59371,"ELEMENT_SET_NO":999,"REV_AT_EPOCH":11597,"BSTAR":0.00012878122,"MEAN_MOTION_DOT":3.881e-5,"MEAN_MOTION_DDOT":0},{"OBJECT_NAME":"LEGION 1","OBJECT_ID":"2024-081A","EPOCH":"2026-04-27T05:29:36.878784","MEAN_MOTION":15.1676642,"ECCENTRICITY":0.00099154,"INCLINATION":97.5025,"RA_OF_ASC_NODE":195.6247,"ARG_OF_PERICENTER":187.8532,"MEAN_ANOMALY":172.2547,"EPHEMERIS_TYPE":0,"CLASSIFICATION_TYPE":"U","NORAD_CAT_ID":59625,"ELEMENT_SET_NO":999,"REV_AT_EPOCH":10981,"BSTAR":0.00027386723,"MEAN_MOTION_DOT":5.315e-5,"MEAN_MOTION_DDOT":0},{"OBJECT_NAME":"LEGION 2","OBJECT_ID":"2024-081B","EPOCH":"2026-04-27T06:17:44.679552","MEAN_MOTION":15.16997491,"ECCENTRICITY":0.00114137,"INCLINATION":97.5024,"RA_OF_ASC_NODE":195.7472,"ARG_OF_PERICENTER":161.4782,"MEAN_ANOMALY":198.6869,"EPHEMERIS_TYPE":0,"CLASSIFICATION_TYPE":"U","NORAD_CAT_ID":59626,"ELEMENT_SET_NO":999,"REV_AT_EPOCH":10982,"BSTAR":0.00024443209,"MEAN_MOTION_DOT":4.769e-5,"MEAN_MOTION_DDOT":0},{"OBJECT_NAME":"ALOS-4 (DAICHI-4)","OBJECT_ID":"2024-123A","EPOCH":"2026-04-27T05:32:34.446336","MEAN_MOTION":14.79471072,"ECCENTRICITY":0.000163,"INCLINATION":97.9207,"RA_OF_ASC_NODE":215.127,"ARG_OF_PERICENTER":99.3872,"MEAN_ANOMALY":260.7524,"EPHEMERIS_TYPE":0,"CLASSIFICATION_TYPE":"U","NORAD_CAT_ID":60182,"ELEMENT_SET_NO":999,"REV_AT_EPOCH":9834,"BSTAR":0.00018243467,"MEAN_MOTION_DOT":1.311e-5,"MEAN_MOTION_DDOT":0},{"OBJECT_NAME":"LEGION 3","OBJECT_ID":"2024-146A","EPOCH":"2026-04-26T22:12:50.271840","MEAN_MOTION":15.15649143,"ECCENTRICITY":0.0008793,"INCLINATION":45.002,"RA_OF_ASC_NODE":305.3981,"ARG_OF_PERICENTER":232.6219,"MEAN_ANOMALY":127.3859,"EPHEMERIS_TYPE":0,"CLASSIFICATION_TYPE":"U","NORAD_CAT_ID":60452,"ELEMENT_SET_NO":999,"REV_AT_EPOCH":9424,"BSTAR":0.00027435,"MEAN_MOTION_DOT":5.05e-5,"MEAN_MOTION_DDOT":0},{"OBJECT_NAME":"LEGION 4","OBJECT_ID":"2024-146B","EPOCH":"2026-04-27T06:06:49.615488","MEAN_MOTION":15.14856284,"ECCENTRICITY":0.00104172,"INCLINATION":45.0029,"RA_OF_ASC_NODE":35.4979,"ARG_OF_PERICENTER":28.6013,"MEAN_ANOMALY":331.5435,"EPHEMERIS_TYPE":0,"CLASSIFICATION_TYPE":"U","NORAD_CAT_ID":60453,"ELEMENT_SET_NO":999,"REV_AT_EPOCH":9314,"BSTAR":0.00029356495,"MEAN_MOTION_DOT":5.298e-5,"MEAN_MOTION_DDOT":0},{"OBJECT_NAME":"SENTINEL-2C","OBJECT_ID":"2024-157A","EPOCH":"2026-04-27T04:38:41.652960","MEAN_MOTION":14.30816718,"ECCENTRICITY":0.00014889,"INCLINATION":98.5631,"RA_OF_ASC_NODE":192.7014,"ARG_OF_PERICENTER":102.1921,"MEAN_ANOMALY":257.9428,"EPHEMERIS_TYPE":0,"CLASSIFICATION_TYPE":"U","NORAD_CAT_ID":60989,"ELEMENT_SET_NO":999,"REV_AT_EPOCH":8569,"BSTAR":6.0814368e-5,"MEAN_MOTION_DOT":1.16e-6,"MEAN_MOTION_DDOT":0},{"OBJECT_NAME":"IONOSFERA-M 1","OBJECT_ID":"2024-199A","EPOCH":"2026-04-27T06:39:48.580704","MEAN_MOTION":14.22744514,"ECCENTRICITY":4.27e-5,"INCLINATION":98.7244,"RA_OF_ASC_NODE":350.9698,"ARG_OF_PERICENTER":19.9313,"MEAN_ANOMALY":340.1882,"EPHEMERIS_TYPE":0,"CLASSIFICATION_TYPE":"U","NORAD_CAT_ID":61735,"ELEMENT_SET_NO":999,"REV_AT_EPOCH":12046,"BSTAR":4.2304235e-5,"MEAN_MOTION_DOT":5.1e-7,"MEAN_MOTION_DDOT":0},{"OBJECT_NAME":"IONOSFERA-M 2","OBJECT_ID":"2024-199B","EPOCH":"2026-04-27T05:48:05.557536","MEAN_MOTION":14.22747359,"ECCENTRICITY":0.00019414,"INCLINATION":98.7243,"RA_OF_ASC_NODE":350.8454,"ARG_OF_PERICENTER":96.3958,"MEAN_ANOMALY":263.7441,"EPHEMERIS_TYPE":0,"CLASSIFICATION_TYPE":"U","NORAD_CAT_ID":61736,"ELEMENT_SET_NO":999,"REV_AT_EPOCH":12358,"BSTAR":4.485674e-5,"MEAN_MOTION_DOT":5.6e-7,"MEAN_MOTION_DDOT":0},{"OBJECT_NAME":"BIOMASS","OBJECT_ID":"2025-090A","EPOCH":"2026-04-27T05:42:14.704416","MEAN_MOTION":14.67539706,"ECCENTRICITY":0.0001399,"INCLINATION":98.0748,"RA_OF_ASC_NODE":305.2897,"ARG_OF_PERICENTER":88.3067,"MEAN_ANOMALY":271.8298,"EPHEMERIS_TYPE":0,"CLASSIFICATION_TYPE":"U","NORAD_CAT_ID":63772,"ELEMENT_SET_NO":999,"REV_AT_EPOCH":5321,"BSTAR":0.00022268513,"MEAN_MOTION_DOT":1.215e-5,"MEAN_MOTION_DDOT":0}]
